NORAD_CAT_ID,OBJECT_NAME,OBJECT_TYPE,EPOCH,MEAN_MOTION,ECCENTRICITY,INCLINATION,RA_OF_ASC_NODE,ARG_OF_PERICENTER,MEAN_ANOMALY,BSTAR,MEAN_MOTION_DOT,MEAN_MOTION_DDOT,TLE_LINE0,TLE_LINE1,TLE_LINE2,SEMIMAJOR_AXIS,PERIOD,APOGEE,PERIGEE,DECAYED
51131.0,STARLINK-3388,PAYLOAD,2023-12-19 07:08:44,15.08836006,0.0001321,53.2178,341.6048,83.4742,276.64,-9.4881e-06,-4.39e-06,0.0,0 STARLINK-3388,1 51131U 22005AD  23353.29773665 -.00000439  00000-0 -94881-5 0  9994,2 51131  53.2178 341.6048 0001321  83.4742 276.6400 15.08836006106234,6917.893,95.438,540.671,538.844,0.0
51131.0,STARLINK-3388,PAYLOAD,2023-12-20 03:48:45,15.08843223,0.0001379,53.2186,337.7386,77.5623,282.5524,-3.224e-05,-8.01e-06,0.0,0 STARLINK-3388,1 51131U 22005AD  23354.15885503 -.00000801  00000-0 -32240-4 0  9998,2 51131  53.2186 337.7386 0001379  77.5623 282.5524 15.08843223107489,6917.871,95.437,540.69,538.782,0.0
51131.0,STARLINK-3388,PAYLOAD,2023-12-20 05:24:08,15.08845369,0.0001394,53.2176,337.443,73.6401,286.4745,-1.4794e-05,-5.23e-06,0.0,0 STARLINK-3388,1 51131U 22005AD  23354.22509370 -.00000523  00000-0 -14794-4 0  9996,2 51131  53.2176 337.4430 0001394  73.6401 286.4745 15.08845369106371,6917.864,95.437,540.693,538.765,0.0
51131.0,STARLINK-3388,PAYLOAD,2023-12-21 03:39:31,15.08849739,0.0001175,53.2174,333.2822,88.3191,271.7936,0.00024077,3.547e-05,0.0,0 STARLINK-3388,1 51131U 22005AD  23355.15244412  .00003547  00000-0  24077-3 0  9993,2 51131  53.2174 333.2822 0001175  88.3191 271.7936 15.08849739107638,6917.851,95.437,540.528,538.903,0.0
51131.0,STARLINK-3388,PAYLOAD,2023-12-21 05:14:54,15.08855479,0.0001364,53.2178,332.9776,67.6307,292.483,0.00029368,4.391e-05,0.0,0 STARLINK-3388,1 51131U 22005AD  23355.21868090  .00004391  00000-0  29368-3 0  9990,2 51131  53.2178 332.9776 0001364  67.6307 292.4830 15.08855479106523,6917.833,95.437,540.642,538.754,0.0
51131.0,STARLINK-3388,PAYLOAD,2023-12-22 03:30:18,15.08844599,0.0001371,53.2167,328.8142,83.4553,276.6595,0.00010055,1.313e-05,0.0,0 STARLINK-3388,1 51131U 22005AD  23356.14605262  .00001313  00000-0  10055-3 0  9997,2 51131  53.2167 328.8142 0001371  83.4553 276.6595 15.08844599107781,6917.866,95.437,540.68,538.783,0.0
51131.0,STARLINK-3388,PAYLOAD,2023-12-22 05:05:42,15.08846104,0.0001399,53.2168,328.5164,84.0394,276.0758,0.00013391,1.844e-05,0.0,0 STARLINK-3388,1 51131U 22005AD  23356.21229236  .00001844  00000-0  13391-3 0  9993,2 51131  53.2168 328.5164 0001399  84.0394 276.0758 15.08846104106679,6917.862,95.437,540.695,538.759,0.0
51131.0,STARLINK-3388,PAYLOAD,2023-12-23 03:21:06,15.08843059,0.0001613,53.2183,324.3572,84.9678,275.1498,-5.6245e-05,-1.183e-05,0.0,0 STARLINK-3388,1 51131U 22005AD  23357.13965314 -.00001183  00000-0 -56245-4 0  9993,2 51131  53.2183 324.3572 0001613  84.9678 275.1498 15.08843059107933,6917.871,95.437,540.852,538.62,0.0
51131.0,STARLINK-3388,PAYLOAD,2023-12-23 22:25:44,15.08812421,0.0001989,53.2192,320.7905,98.4204,261.7014,0.00079058,0.00012307,0.0,0 STARLINK-3388,1 51131U 22005AD  23357.93454795  .00012307  00000-0  79058-3 0  9991,2 51131  53.2192 320.7905 0001989  98.4204 261.7014 15.08812421106937,6917.965,95.439,541.206,538.454,0.0
51131.0,STARLINK-3388,PAYLOAD,2023-12-24 03:11:53,15.08840883,0.0001704,53.2184,319.8981,94.3558,265.7628,0.00012335,1.676e-05,0.0,0 STARLINK-3388,1 51131U 22005AD  23358.13325613  .00001676  00000-0  12335-3 0  9992,2 51131  53.2184 319.8981 0001704  94.3558 265.7628 15.08840883106964,6917.878,95.437,540.921,538.564,0.0
51131.0,STARLINK-3388,PAYLOAD,2023-12-25 03:02:40,15.08837935,0.0001784,53.2181,315.4371,102.3701,257.7491,-2.3425e-06,-3.25e-06,0.0,0 STARLINK-3388,1 51131U 22005AD  23359.12685990 -.00000325  00000-0 -23425-5 0  9995,2 51131  53.2181 315.4371 0001784 102.3701 257.7491 15.08837935108239,6917.887,95.438,540.986,538.518,0.0
51131.0,STARLINK-3388,PAYLOAD,2023-12-25 06:13:26,15.08844966,0.0001833,53.2171,314.8398,111.5021,248.6167,-1.4081e-05,-5.12e-06,0.0,0 STARLINK-3388,1 51131U 22005AD  23359.25933563 -.00000512  00000-0 -14081-4 0  9996,2 51131  53.2171 314.8398 0001833 111.5021 248.6167 15.08844966107131,6917.865,95.437,540.998,538.462,0.0
51131.0,STARLINK-3388,PAYLOAD,2023-12-26 02:53:27,15.08837851,0.0001977,53.218,310.9762,116.5373,243.5822,3.8444e-05,3.24e-06,0.0,0 STARLINK-3388,1 51131U 22005AD  23360.12046138  .00000324  00000-0  38444-4 0  9995,2 51131  53.2180 310.9762 0001977 116.5373 243.5822 15.08837851108382,6917.887,95.438,541.12,538.384,0.0
51131.0,STARLINK-3388,PAYLOAD,2023-12-26 06:04:14,15.08842167,0.0001764,53.2189,310.3817,90.9584,269.161,9.487e-05,1.222e-05,0.0,0 STARLINK-3388,1 51131U 22005AD  23360.25294266  .00001222  00000-0  94870-4 0  9999,2 51131  53.2189 310.3817 0001764  90.9584 269.1610 15.08842167107282,6917.874,95.437,540.959,538.518,0.0
51131.0,STARLINK-3388,PAYLOAD,2023-12-27 04:19:37,15.08849119,0.0001427,53.2179,306.2153,104.9245,255.1905,0.00010581,1.397e-05,0.0,0 STARLINK-3388,1 51131U 22005AD  23361.18029848  .00001397  00000-0  10581-3 0  9993,2 51131  53.2179 306.2153 0001427 104.9245 255.1905 15.08849119108540,6917.853,95.437,540.705,538.73,0.0
51131.0,STARLINK-3388,PAYLOAD,2023-12-28 02:35:01,15.08847908,0.0001674,53.2182,302.0516,78.9089,281.2091,7.3209e-05,8.77e-06,0.0,0 STARLINK-3388,1 51131U 22005AD  23362.10766159  .00000877  00000-0  73209-4 0  9998,2 51131  53.2182 302.0516 0001674  78.9089 281.2091 15.08847908108686,6917.856,95.437,540.879,538.563,0.0
51131.0,STARLINK-3388,PAYLOAD,2023-12-28 20:04:16,15.08842437,0.0001838,53.2174,298.7895,66.541,293.5775,6.7018e-05,7.79e-06,0.0,0 STARLINK-3388,1 51131U 22005AD  23362.83630607  .00000779  00000-0  67018-4 0  9998,2 51131  53.2174 298.7895 0001838  66.5410 293.5775 15.08842437108790,6917.873,95.437,541.009,538.466,0.0
51131.0,STARLINK-3388,PAYLOAD,2023-12-29 05:36:35,15.08844146,0.0001644,53.218,296.996,81.283,278.8349,2.7882e-05,1.56e-06,0.0,0 STARLINK-3388,1 51131U 22005AD  23363.23374398  .00000156  00000-0  27882-4 0  9999,2 51131  53.2180 296.9960 0001644  81.2830 278.8349 15.08844146107730,6917.868,95.437,540.87,538.595,0.0
51131.0,STARLINK-3388,PAYLOAD,2023-12-30 02:16:35,15.08849438,0.000161,53.2179,293.1302,93.457,266.6606,3.6641e-05,2.95e-06,0.0,0 STARLINK-3388,1 51131U 22005AD  23364.09485846  .00000295  00000-0  36641-4 0  9992,2 51131  53.2179 293.1302 0001610  93.4570 266.6606 15.08849438108984,6917.852,95.437,540.83,538.603,0.0
51131.0,STARLINK-3388,PAYLOAD,2023-12-30 19:45:50,15.08836941,0.0001522,53.2178,289.8591,102.211,257.9053,4.6474e-05,4.52e-06,0.0,0 STARLINK-3388,1 51131U 22005AD  23364.82350653  .00000452  00000-0  46474-4 0  9990,2 51131  53.2178 289.8591 0001522 102.2110 257.9053 15.08836941109093,6917.89,95.438,540.808,538.702,0.0
51131.0,STARLINK-3388,PAYLOAD,2023-12-30 22:56:37,15.08837088,0.000154,53.2176,289.2641,102.1839,257.9326,3.8634e-05,3.27e-06,0.0,0 STARLINK-3388,1 51131U 22005AD  23364.95598623  .00000327  00000-0  38634-4 0  9995,2 51131  53.2176 289.2641 0001540 102.1839 257.9326 15.08837088107991,6917.889,95.438,540.82,538.689,0.0
51131.0,STARLINK-3388,PAYLOAD,2023-12-31 05:18:09,15.08836849,0.0001523,53.2176,288.0751,101.6235,258.4929,3.5573e-05,2.78e-06,0.0,0 STARLINK-3388,1 51131U 22005AD  23365.22094730  .00000278  00000-0  35573-4 0  9990,2 51131  53.2176 288.0751 0001523 101.6235 258.4929 15.08836849108030,6917.89,95.438,540.809,538.701,0.0
51131.0,STARLINK-3388,PAYLOAD,2024-01-01 01:58:11,15.08792082,0.0002001,53.2179,284.2092,114.8044,245.3156,0.00065572,0.0001015,0.0,0 STARLINK-3388,1 51131U 22005AD  24001.08207666  .00010150  00000-0  65572-3 0  9997,2 51131  53.2179 284.2092 0002001 114.8044 245.3156 15.08792082109280,6918.027,95.441,541.276,538.508,0.0
51131.0,STARLINK-3388,PAYLOAD,2024-01-01 05:08:56,15.0884436,0.000158,53.2178,283.6141,110.1021,250.0141,-2.9943e-05,-7.65e-06,0.0,0 STARLINK-3388,1 51131U 22005AD  24001.21454551 -.00000765  00000-0 -29943-4 0  9995,2 51131  53.2178 283.6141 0001580 110.1021 250.0141 15.08844360109309,6917.867,95.437,540.825,538.639,0.0
51131.0,STARLINK-3388,PAYLOAD,2024-01-01 22:38:11,15.08839847,0.0001491,53.2178,280.3434,108.2397,251.8757,8.7254e-05,1.101e-05,0.0,0 STARLINK-3388,1 51131U 22005AD  24001.94318568  .00001101  00000-0  87254-4 0  9994,2 51131  53.2178 280.3434 0001491 108.2397 251.8757 15.08839847108296,6917.881,95.438,540.777,538.714,0.0
51131.0,STARLINK-3388,PAYLOAD,2024-01-02 03:24:20,15.08844526,0.0001449,53.2177,279.4512,105.334,254.7812,0.00012428,1.691e-05,0.0,0 STARLINK-3388,1 51131U 22005AD  24002.14190190  .00001691  00000-0  12428-3 0  9990,2 51131  53.2177 279.4512 0001449 105.3340 254.7812 15.08844526108328,6917.867,95.437,540.734,538.729,0.0
51131.0,STARLINK-3388,PAYLOAD,2024-01-02 22:28:58,15.08840796,0.0001472,53.2182,275.8857,105.5028,254.6127,2.5315e-05,1.15e-06,0.0,0 STARLINK-3388,1 51131U 22005AD  24002.93678762  .00000115  00000-0  25315-4 0  9993,2 51131  53.2182 275.8857 0001472 105.5028 254.6127 15.08840796108443,6917.878,95.438,540.761,538.725,0.0
51131.0,STARLINK-3388,PAYLOAD,2024-01-03 03:15:07,15.08845815,0.0001491,53.2178,274.992,96.7598,263.3564,8.2781e-05,1.03e-05,0.0,0 STARLINK-3388,1 51131U 22005AD  24003.13550268  .00001030  00000-0  82781-4 0  9993,2 51131  53.2178 274.9920 0001491  96.7598 263.3564 15.08845815109599,6917.863,95.437,540.759,538.696,0.0
51131.0,STARLINK-3388,PAYLOAD,2024-01-03 22:19:45,15.08839781,0.0001592,53.2173,271.428,76.0708,284.0461,2.099e-06,-2.55e-06,0.0,0 STARLINK-3388,1 51131U 22005AD  24003.93039029 -.00000255  00000-0  20990-5 0  9992,2 51131  53.2173 271.4280 0001592  76.0708 284.0461 15.08839781108591,6917.881,95.438,540.847,538.645,0.0
51131.0,STARLINK-3388,PAYLOAD,2024-01-04 03:05:54,15.0884584,0.0001452,53.2177,270.5332,97.2996,262.8161,2.2578e-05,7.1e-07,0.0,0 STARLINK-3388,1 51131U 22005AD  24004.12910418  .00000071  00000-0  22578-4 0  9992,2 51131  53.2177 270.5332 0001452  97.2996 262.8161 15.08845840109744,6917.863,95.437,540.732,538.723,0.0
